NORAD_CAT_ID,OBJECT_NAME,OBJECT_TYPE,EPOCH,MEAN_MOTION,ECCENTRICITY,INCLINATION,RA_OF_ASC_NODE,ARG_OF_PERICENTER,MEAN_ANOMALY,BSTAR,MEAN_MOTION_DOT,MEAN_MOTION_DDOT,TLE_LINE0,TLE_LINE1,TLE_LINE2,SEMIMAJOR_AXIS,PERIOD,APOGEE,PERIGEE,DECAYED
55290.0,STARLINK-5266,PAYLOAD,2023-03-27 03:28:31,15.69921169,0.0004579,70.0024,241.6325,264.2511,95.8163,-0.0001189,-0.00014488,0.0,0 STARLINK-5266,1 55290U 23010X   23086.14480558 -.00014488  00000-0 -11890-3 0  9990,2 55290  70.0024 241.6325 0004579 264.2511  95.8163 15.69921169 10962,6737.26,91.724,362.21,356.04,0.0
55290.0,STARLINK-5266,PAYLOAD,2023-03-27 12:39:02,15.6992562,0.0003643,70.0018,240.5582,268.3414,91.7365,1.4154e-05,1.49e-05,0.0,0 STARLINK-5266,1 55290U 23010X   23086.52711043  .00001490  00000-0  14154-4 0  9992,2 55290  70.0018 240.5582 0003643 268.3414  91.7365 15.69925620 11333,6737.247,91.724,361.566,356.657,0.0
55290.0,STARLINK-5266,PAYLOAD,2023-03-27 20:17:48,15.69913999,0.0004112,70.0022,239.6618,278.1493,81.9236,3.7287e-05,4.271e-05,0.0,0 STARLINK-5266,1 55290U 23010X   23086.84570085  .00004271  00000-0  37287-4 0  9998,2 55290  70.0022 239.6618 0004112 278.1493  81.9236 15.69913999 11384,6737.28,91.725,361.915,356.375,0.0
55290.0,STARLINK-5266,PAYLOAD,2023-03-27 21:49:33,15.69916718,0.0004228,70.0018,239.4842,265.3185,94.7528,4.5019e-05,5.203e-05,0.0,0 STARLINK-5266,1 55290U 23010X   23086.90941564  .00005203  00000-0  45019-4 0  9997,2 55290  70.0018 239.4842 0004228 265.3185  94.7528 15.69916718 11085,6737.272,91.725,361.986,356.289,0.0
55290.0,STARLINK-5266,PAYLOAD,2023-03-28 13:07:05,15.69920306,0.0003835,70.0032,237.6919,266.3506,93.7251,0.00011694,0.0001387,0.0,0 STARLINK-5266,1 55290U 23010X   23087.54659122  .00013870  00000-0  11694-3 0  9994,2 55290  70.0032 237.6919 0003835 266.3506  93.7251 15.69920306 11492,6737.262,91.724,361.711,356.543,0.0
55290.0,STARLINK-5266,PAYLOAD,2023-03-28 19:14:05,15.69969146,0.000374,70.0013,236.974,273.6134,86.4634,0.00028598,0.00034381,0.0,0 STARLINK-5266,1 55290U 23010X   23087.80145040  .00034381  00000-0  28598-3 0  9993,2 55290  70.0013 236.9740 0003740 273.6134  86.4634 15.69969146 11532,6737.122,91.722,361.507,356.468,0.0
55290.0,STARLINK-5266,PAYLOAD,2023-03-28 22:17:35,15.69981338,0.0004184,70.0008,236.616,271.2292,88.8424,0.00031718,0.00038196,0.0,0 STARLINK-5266,1 55290U 23010X   23087.92887786  .00038196  00000-0  31718-3 0  9992,2 55290  70.0008 236.6160 0004184 271.2292  88.8424 15.69981338 11249,6737.087,91.721,361.771,356.134,0.0
55290.0,STARLINK-5266,PAYLOAD,2023-03-29 02:52:49,15.69956395,0.0005076,70.0019,236.0794,263.6706,96.3912,4.2864e-05,4.952e-05,0.0,0 STARLINK-5266,1 55290U 23010X   23088.12002278  .00004952  00000-0  42864-4 0  9998,2 55290  70.0019 236.0794 0005076 263.6706  96.3912 15.69956395 11278,6737.159,91.722,362.444,355.604,0.0
55290.0,STARLINK-5266,PAYLOAD,2023-03-29 12:03:21,15.69951383,0.0003067,70.003,235.0049,266.1478,93.9367,0.00012909,0.00015354,0.0,0 STARLINK-5266,1 55290U 23010X   23088.50232695  .00015354  00000-0  12909-3 0  9992,2 55290  70.0030 235.0049 0003067 266.1478  93.9367 15.69951383 11331,6737.173,91.723,361.104,356.972,0.0
55290.0,STARLINK-5266,PAYLOAD,2023-03-29 21:13:51,15.69940484,0.0003676,70.0025,233.9291,267.9221,92.1553,3.8615e-05,4.436e-05,0.0,0 STARLINK-5266,1 55290U 23010X   23088.88462507  .00004436  00000-0  38615-4 0  9992,2 55290  70.0025 233.9291 0003676 267.9221  92.1553 15.69940484 11396,6737.204,91.723,361.546,356.593,0.0
55290.0,STARLINK-5266,PAYLOAD,2023-03-30 12:31:21,15.69859569,0.0003016,69.9997,232.1368,272.4035,87.6815,0.00054206,0.00065296,0.0,0 STARLINK-5266,1 55290U 23010X   23089.52178227  .00065296  00000-0  54206-3 0  9991,2 55290  69.9997 232.1368 0003016 272.4035  87.6815 15.69859569 11493,6737.436,91.728,361.333,357.269,0.0
55290.0,STARLINK-5266,PAYLOAD,2023-03-30 17:06:38,15.69874048,0.0003013,70.001,231.601,265.3129,94.7723,0.00064884,0.0007837,0.0,0 STARLINK-5266,1 55290U 23010X   23089.71294473  .00078370  00000-0  64884-3 0  9994,2 55290  70.0010 231.6010 0003013 265.3129  94.7723 15.69874048 11836,6737.394,91.727,361.289,357.229,0.0
55290.0,STARLINK-5266,PAYLOAD,2023-03-31 02:17:09,15.69882407,0.0003241,70.0004,230.5244,280.2795,79.8035,0.0005343,0.00064414,0.0,0 STARLINK-5266,1 55290U 23010X   23090.09525043  .00064414  00000-0  53430-3 0  9996,2 55290  70.0004 230.5244 0003241 280.2795  79.8035 15.69882407 11584,6737.37,91.727,361.419,357.052,0.0
55290.0,STARLINK-5266,PAYLOAD,2023-03-31 12:59:25,15.69896639,0.0002835,70.0022,229.2741,251.0291,109.0597,7.7196e-05,9.068e-05,0.0,0 STARLINK-5266,1 55290U 23010X   23090.54127109  .00009068  00000-0  77196-4 0  9997,2 55290  70.0022 229.2741 0002835 251.0291 109.0597 15.69896639 11655,6737.33,91.726,361.105,357.285,0.0
55290.0,STARLINK-5266,PAYLOAD,2023-03-31 19:06:25,15.69925066,0.0003241,70.0003,228.5566,265.3789,94.7036,0.00011488,0.00013623,0.0,0 STARLINK-5266,1 55290U 23010X   23090.79613222  .00013623  00000-0  11488-3 0  9993,2 55290  70.0003 228.5566 0003241 265.3789  94.7036 15.69925066 11692,6737.248,91.724,361.297,356.93,0.0
55290.0,STARLINK-5266,PAYLOAD,2023-04-01 11:55:42,15.69932225,0.0002869,70.0023,226.5865,256.5578,103.5299,5.6744e-05,6.618e-05,0.0,0 STARLINK-5266,1 55290U 23010X   23091.49701405  .00006618  00000-0  56744-4 0  9993,2 55290  70.0023 226.5865 0002869 256.5578 103.5299 15.69932225 12110,6737.228,91.724,361.026,357.16,0.0
55290.0,STARLINK-5266,PAYLOAD,2023-04-01 18:02:42,15.69914543,0.0002759,70.0021,225.8685,272.2042,87.8838,-1.7687e-05,-2.337e-05,0.0,0 STARLINK-5266,1 55290U 23010X   23091.75188576 -.00002337  00000-0 -17687-4 0  9999,2 55290  70.0021 225.8685 0002759 272.2042  87.8838 15.69914543 11844,6737.278,91.725,361.002,357.285,0.0
55290.0,STARLINK-5266,PAYLOAD,2023-04-02 07:48:28,15.69929524,0.0002947,70.0021,224.2575,269.4186,90.6672,3.8854e-05,4.463e-05,0.0,0 STARLINK-5266,1 55290U 23010X   23092.32533303  .00004463  00000-0  38854-4 0  9994,2 55290  70.0021 224.2575 0002947 269.4186  90.6672 15.69929524 11934,6737.236,91.724,361.086,357.115,0.0
55290.0,STARLINK-5266,PAYLOAD,2023-04-02 12:23:44,15.69924698,0.0003418,70.0017,223.7195,269.3817,90.6987,1.8302e-05,1.989e-05,0.0,0 STARLINK-5266,1 55290U 23010X   23092.51648363  .00001989  00000-0  18302-4 0  9994,2 55290  70.0017 223.7195 0003418 269.3817  90.6987 15.69924698 12279,6737.249,91.724,361.417,356.812,0.0
55290.0,STARLINK-5266,PAYLOAD,2023-04-02 18:30:44,15.69916785,0.0002936,70.0022,223.0029,270.3084,89.7775,-1.3815e-05,-1.872e-05,0.0,0 STARLINK-5266,1 55290U 23010X   23092.77135337 -.00001872  00000-0 -13815-4 0  9991,2 55290  70.0022 223.0029 0002936 270.3084  89.7775 15.69916785 12009,6737.272,91.725,361.115,357.159,0.0
55290.0,STARLINK-5266,PAYLOAD,2023-04-03 11:20:01,15.6992518,0.0003656,70.0013,221.0314,270.0692,90.0085,4.1626e-05,4.796e-05,0.0,0 STARLINK-5266,1 55290U 23010X   23093.47223435  .00004796  00000-0  41626-4 0  9993,2 55290  70.0013 221.0314 0003656 270.0692  90.0085 15.69925180 12116,6737.248,91.724,361.576,356.65,0.0
55290.0,STARLINK-5266,PAYLOAD,2023-04-04 11:48:02,15.69922195,0.0002893,70.0019,218.1644,253.1186,106.9693,2.3571e-06,7.1e-07,0.0,0 STARLINK-5266,1 55290U 23010X   23094.49170102  .00000071  00000-0  23571-5 0  9990,2 55290  70.0019 218.1644 0002893 253.1186 106.9693 15.69922195 12279,6737.257,91.724,361.071,357.173,0.0
55290.0,STARLINK-5266,PAYLOAD,2023-04-05 10:44:20,15.69930432,0.0002966,70.0029,215.4784,263.7756,96.3102,7.9121e-05,9.314e-05,0.0,0 STARLINK-5266,1 55290U 23010X   23095.44745474  .00009314  00000-0  79121-4 0  9996,2 55290  70.0029 215.4784 0002966 263.7756  96.3102 15.69930432 12737,6737.233,91.724,361.096,357.1,0.0
55290.0,STARLINK-5266,PAYLOAD,2023-04-05 15:19:35,15.69947243,0.0002471,70.0044,214.944,226.9096,133.1893,0.0001113,0.00013203,0.0,0 STARLINK-5266,1 55290U 23010X   23095.63860059  .00013203  00000-0  11130-3 0  9991,2 55290  70.0044 214.9440 0002471 226.9096 133.1893 15.69947243 12450,6737.185,91.723,360.715,357.385,0.0
55290.0,STARLINK-5266,PAYLOAD,2023-04-05 16:51:20,15.69941231,0.0002383,70.0036,214.7636,251.0645,109.0293,9.4493e-05,0.00011171,0.0,0 STARLINK-5266,1 55290U 23010X   23095.70231894  .00011171  00000-0  94493-4 0  9994,2 55290  70.0036 214.7636 0002383 251.0645 109.0293 15.69941231 12465,6737.202,91.723,360.673,357.462,0.0
55290.0,STARLINK-5266,PAYLOAD,2023-04-06 11:12:17,15.69836465,0.0003517,70.0045,212.6152,228.1831,131.9064,-0.00014284,-0.00017291,0.0,0 STARLINK-5266,1 55290U 23010X   23096.46686975 -.00017291  00000-0 -14284-3 0  9992,2 55290  70.0045 212.6152 0003517 228.1831 131.9064 15.69836465 12896,6737.502,91.729,361.736,356.997,0.0
55290.0,STARLINK-5266,PAYLOAD,2023-04-06 21:54:28,15.69926306,0.0003714,70.0013,211.3571,270.8045,89.2725,2.1687e-05,2.396e-05,0.0,0 STARLINK-5266,1 55290U 23010X   23096.91283311  .00002396  00000-0  21687-4 0  9993,2 55290  70.0013 211.3571 0003714 270.8045  89.2725 15.69926306 12659,6737.245,91.724,361.612,356.608,0.0
55290.0,STARLINK-5266,PAYLOAD,2023-04-07 10:08:29,15.69932157,0.0003187,70.0025,209.9262,258.6981,101.3856,2.6347e-05,2.957e-05,0.0,0 STARLINK-5266,1 55290U 23010X   23097.42256639  .00002957  00000-0  26347-4 0  9994,2 55290  70.0025 209.9262 0003187 258.6981 101.3856 15.69932157 13045,6737.228,91.724,361.24,356.946,0.0
55290.0,STARLINK-5266,PAYLOAD,2023-04-08 06:01:16,15.69923485,0.0002877,70.0004,207.595,261.088,98.999,1.9977e-05,2.19e-05,0.0,0 STARLINK-5266,1 55290U 23010X   23098.25088615  .00002190  00000-0  19977-4 0  9993,2 55290  70.0004 207.5950 0002877 261.0880  98.9990 15.69923485 12864,6737.253,91.724,361.056,357.18,0.0
55290.0,STARLINK-5266,PAYLOAD,2023-04-08 10:36:32,15.69921825,0.0002711,70.0015,207.0572,253.9682,106.1216,5.9752e-06,5.06e-06,0.0,0 STARLINK-5266,1 55290U 23010X   23098.44203779  .00000506  00000-0  59752-5 0  9999,2 55290  70.0015 207.0572 0002711 253.9682 106.1216 15.69921825 13206,6737.258,91.724,360.949,357.296,0.0
